
# Worst residual: 11.54 km
# MJD 58712.000000 (2019 Aug 17  0:00)
NORAD 30797 = 2007-004D = THEMIS D
1 30797U 07004D   19229.49919926  .00000000  00000-0  00000-0 0  5805
2 30797 009.0231 047.6159 8595787 001.9743 037.5301 00.71874709    00

# Worst residual: 11.30 km
# MJD 58713.000000 (2019 Aug 18  0:00)
NORAD 30797 = 2007-004D = THEMIS D
1 30797U 07004D   19230.49919926  .00000000  00000-0  00000-0 0  5807
2 30797 009.0383 047.5437 8596174 002.1272 296.1423 00.71855041    03

# Worst residual: 6.66 km
# MJD 58714.000000 (2019 Aug 19  0:00)
NORAD 30797 = 2007-004D = THEMIS D
1 30797U 07004D   19231.49919926  .00000000  00000-0  00000-0 0  5808
2 30797 009.0465 047.4592 8598713 002.2993 194.7826 00.71864815    06

# Worst residual: 12.50 km
# MJD 58715.000000 (2019 Aug 20  0:00)
NORAD 30797 = 2007-004D = THEMIS D
1 30797U 07004D   19232.49919926  .00000000  00000-0  00000-0 0  5809
2 30797 009.0663 047.3757 8596056 002.4673 093.4262 00.71853500    01
